{
    "links": {
        "self": "http://www.neowsapp.com/rest/v1/neo/3838833?api_key=iIulBulltgU6a56xZRHN4H3l9WmuAYTsLGpBGhQ2"
    },
    "id": "3838833",
    "neo_reference_id": "3838833",
    "name": "(2019 DK)",
    "designation": "2019 DK",
    "nasa_jpl_url": "http://ssd.jpl.nasa.gov/sbdb.cgi?sstr=3838833",
    "absolute_magnitude_h": 22.6,
    "estimated_diameter": {
        "kilometers": {
            "estimated_diameter_min": 0.0802703167,
            "estimated_diameter_max": 0.1794898848
        },
        "meters": {
            "estimated_diameter_min": 80.2703167283,
            "estimated_diameter_max": 179.4898847799
        },
        "miles": {
            "estimated_diameter_min": 0.049877647,
            "estimated_diameter_max": 0.1115298092
        },
        "feet": {
            "estimated_diameter_min": 263.3540659348,
            "estimated_diameter_max": 588.8775935812
        }
    },
    "is_potentially_hazardous_asteroid": false,
    "close_approach_data": [
        {
            "close_approach_date": "2019-02-06",
            "close_approach_date_full": "2019-Feb-06 09:43",
            "epoch_date_close_approach": 1549446180000,
            "relative_velocity": {
                "kilometers_per_second": "6.0444808379",
                "kilometers_per_hour": "21760.1310164875",
                "miles_per_hour": "13520.899186328"
            },
            "miss_distance": {
                "astronomical": "0.3692007518",
                "lunar": "143.6190924502",
                "kilometers": "55231646.071678666",
                "miles": "34319353.4593749508"
            },
            "orbiting_body": "Earth"
        }
    ],
    "orbital_data": {
        "orbit_id": "1",
        "orbit_determination_date": "2019-02-28 04:42:05",
        "first_observation_date": "2019-01-10",
        "last_observation_date": "2019-02-28",
        "data_arc_in_days": 49,
        "observations_used": 27,
        "orbit_uncertainty": "8",
        "minimum_orbit_intersection": ".148434",
        "jupiter_tisserand_invariant": "4.853",
        "epoch_osculation": "2458507.5",
        "eccentricity": ".1839899685605771",
        "semi_major_axis": "1.347227148558442",
        "inclination": "8.0407693195733",
        "ascending_node_longitude": "161.2394931406693",
        "orbital_period": "571.1624735236267",
        "perihelion_distance": "1.099350867851218",
        "perihelion_argument": "243.0767881542926",
        "aphelion_distance": "1.595103429265665",
        "perihelion_time": "2458399.136149064836",
        "mean_anomaly": "68.30103192177822",
        "mean_motion": ".6302935096192174",
        "equinox": "J2000",
        "orbit_class": {
            "orbit_class_type": "AMO",
            "orbit_class_description": "Near-Earth asteroid orbits similar to that of 1221 Amor",
            "orbit_class_range": "1.017 AU < q (perihelion) < 1.3 AU"
        }
    },
    "is_sentry_object": false
}